IRIDIUM 138             
1 43071U 17083B   26204.59610067  .00000110  00000+0  32312-4 0  9998
2 43071  86.3999 306.4984 0002095  96.4984 263.6451 14.34217946449354
IRIDIUM 116             
1 43072U 17083C   26204.63415772  .00000193  00000+0  61915-4 0  9992
2 43072  86.3984 306.7670 0002548  96.2623 263.8863 14.34218412449397
IRIDIUM 130             
1 43073U 17083D   26204.53267538  .00000148  00000+0  45606-4 0  9996
2 43073  86.3992 307.0882 0002361  99.6170 260.5293 14.34218485449327
IRIDIUM 151             
1 43074U 17083E   26204.64684181  .00000087  00000+0  23870-4 0  9997
2 43074  86.3988 306.8203 0002292  94.8757 265.2701 14.34218308449362
IRIDIUM 134             
1 43075U 17083F   26204.54536073  .00000008  00000+0 -43171-5 0  9994
2 43075  86.3987 306.8712 0002160  96.6093 263.5349 14.34217609449311
IRIDIUM 137             
1 43076U 17083G   26204.69758403  .00000018  00000+0 -55019-6 0  9990
2 43076  86.3989 306.9011 0002622  89.4196 270.7300 14.34217756449404
IRIDIUM 141             
1 43077U 17083H   26204.69123995  .00000150  00000+0  46512-4 0  9995
2 43077  86.3984 306.7324 0002145  93.9570 266.1871 14.34218533449407
IRIDIUM 153             
1 43078U 17083J   26204.64341892  .00000016  00000+0 -15000-5 0  9990
2 43078  86.3951 275.2298 0002148  96.5583 263.5858 14.34217682450501
IRIDIUM 131             
1 43079U 17083K   26204.32971251  .00000046  00000+0  92980-5 0  9998
2 43079  86.3990 307.0718 0002204  93.3563 266.7885 14.34217999449281
IRIDIUM 144             
1 43249U 18030A   26204.64976152  .00000110  00000+0  32099-4 0  9996
2 43249  86.3949 275.1554 0002413  95.6557 264.4914 14.34218139435366
IRIDIUM 149             
1 43250U 18030B   26204.44679856  .00000030  00000+0  36110-5 0  9997
2 43250  86.3947 275.2068 0002231  93.9513 266.1938 14.34217846435356
IRIDIUM 157             
1 43251U 18030C   26204.60536367  .00000012  00000+0 -28557-5 0  9992
2 43251  86.3949 275.1946 0002264  94.7647 265.3807 14.34217778435356
IRIDIUM 140             
1 43252U 18030D   26204.55462279  .00000096  00000+0  27068-4 0  9993
2 43252  86.3949 275.2283 0002272  96.3084 263.8370 14.34218168435402
IRIDIUM 145             
1 43253U 18030E   26204.68147531  .00000094  00000+0  26381-4 0  9994
2 43253  86.3949 275.1473 0002593  96.6619 263.4871 14.34218079435353
IRIDIUM 146             
1 43254U 18030F   26204.45314203  .00000051  00000+0  10997-4 0  9991
2 43254  86.3949 275.2550 0002366  94.8952 265.2514 14.34217839435334
IRIDIUM 148             
1 43255U 18030G   26204.56096550  .00000047  00000+0  96021-5 0  9994
2 43255  86.3951 275.2537 0002307  92.7807 267.3652 14.34218131435381
IRIDIUM 142             
1 43256U 18030H   26204.66878943  .00000170  00000+0  53708-4 0  9991
2 43256  86.3946 275.0961 0002447  94.9727 265.1748 14.34218685435369
IRIDIUM 150             
1 43257U 18030J   26204.28823484  .00000047  00000+0  95820-5 0  9995
2 43257  86.3950 275.3727 0002345  96.0972 264.0491 14.34217500435335
IRIDIUM 143             
1 43258U 18030K   26204.61804909  .00000017  00000+0 -99974-6 0  9997
2 43258  86.3952 275.3287 0002370  95.6448 264.5018 14.34217786435314
IRIDIUM 161             
1 43478U 18047C   26204.63702499  .00000235  00000+0  63893-4 0  9992
2 43478  86.4452  73.2256 0002121  81.2358 278.9083 14.43278818430397
IRIDIUM 152             
1 43479U 18047D   26204.17215558 -.00000041  00000+0 -21741-4 0  9990
2 43479  86.3924  73.2813 0001962  84.3346 275.8073 14.34217250427645
IRIDIUM 147             
1 43480U 18047E   26204.59710973  .00000006  00000+0 -50494-5 0  9997
2 43480  86.3930  73.1096 0002314  87.0481 273.0980 14.34217503427703
IRIDIUM 110             
1 43481U 18047F   26204.53368157  .00000145  00000+0  44591-4 0  9998
2 43481  86.3933  73.2291 0001970  79.3192 280.8226 14.34217988427688
IRIDIUM 162             
1 43482U 18047G   26204.14539874  .00000248  00000+0  67795-4 0  9997
2 43482  86.4453  73.3219 0002176  86.7843 273.3606 14.43281520430318
IRIDIUM 160             
1 43569U 18061A   26204.27021257  .00000114  00000+0  33486-4 0  9996
2 43569  86.3938  41.7027 0002187  87.0743 273.0703 14.34218313418548
IRIDIUM 166             
1 43570U 18061B   26204.43512281 -.00000048  00000+0 -24348-4 0  9993
2 43570  86.3932  41.5837 0002181  89.5985 270.5460 14.34216774418596
IRIDIUM 158             
1 43571U 18061C   26204.26387050  .00000163  00000+0  51297-4 0  9998
2 43571  86.3936  41.6652 0002110  89.6604 270.4834 14.34218554418534
IRIDIUM 165             
1 43572U 18061D   26204.49854751  .00000093  00000+0  26301-4 0  9991
2 43572  86.3941  41.6143 0002294  90.5520 269.5938 14.34217994418594
IRIDIUM 155             
1 43573U 18061E   26204.25118549  .00000060  00000+0  14436-4 0  9994
2 43573  86.3934  41.5848 0002198  91.0810 269.0638 14.34217967418524
IRIDIUM 154             
1 43574U 18061F   26204.09262101  .00000105  00000+0  30480-4 0  9998
2 43574  86.3938  41.7867 0002294  88.8519 271.2940 14.34218177418557
IRIDIUM 163             
1 43575U 18061G   26204.07359283  .00000107  00000+0  31110-4 0  9998
2 43575  86.3935  41.7086 0002114  88.0586 272.0852 14.34218370418528
